FLOCK 4G-30             
1 62679U 25009BY  25125.18020187  .00011928  00000+0  55958-3 0  9993
2 62679  97.4244 205.9179 0004232 351.0921   9.0238 15.19802976 74389
FLOCK 4G-18             
1 62680U 25009BZ  25125.18164226  .00011621  00000+0  54597-3 0  9996
2 62680  97.4318 206.0258 0004892 335.8791  24.2214 15.19754802 74387
FLOCK 4G-17             
1 62681U 25009CA  25125.74861073  .00018869  00000+0  87230-3 0  9994
2 62681  97.4248 206.5308 0004350 341.4015  18.7060 15.20204537 74476
FOREST-3                
1 62682U 25009CB  25125.78587753  .00008907  00000+0  42454-3 0  9990
2 62682  97.4213 206.4361 0004812 347.3223  12.7890 15.19328543 74473
FLOCK 4G-35             
1 62683U 25009CC  25125.18201817  .00010943  00000+0  51496-3 0  9998
2 62683  97.4310 206.0123 0004531 322.9402  37.1519 15.19715976 74389
IRIS-F2                 
1 62684U 25009CD  25125.79551302  .00005319  00000+0  25799-3 0  9991
2 62684  97.4212 206.4176 0005375 344.6147  15.4923 15.18909393 74472
FLOCK 4G-33             
1 62685U 25009CE  25125.20585783  .00007113  00000+0  34323-3 0  9995
2 62685  97.4258 205.8997 0004811 333.5508  26.5481 15.18976235 16746
FOSSASAT-2E18 (TAT-A)   
1 62686U 25009CF  25125.50440174  .00004436  00000+0  22169-3 0  9993
2 62686  97.4279 206.1416 0005281 334.3594  25.7377 15.17953531 16788
HYPE                    
1 62687U 25009CG  25125.19665289  .00055014  00000+0  19734-2 0  9996
2 62687  97.4424 206.7640 0004142 196.9831 163.1271 15.28500953 16774
BLUEBON                 
1 62688U 25009CH  25125.47249177  .00016344  00000+0  71730-3 0  9990
2 62688  97.4285 206.5049 0001037  25.9054 334.2233 15.22026971 16775
2025-009CJ              
1 62689U 25009CJ  25125.48517827  .00035731  00000+0  14236-2 0  9990
2 62689  97.4261 206.6044 0004652 290.5863  69.4876 15.25124634 16789
HADES-R                 
1 62690U 25009CK  25125.44169016  .00045708  00000+0  17349-2 0  9994
2 62690  97.4092 206.4498 0004157 192.2994 167.8144 15.26684721 16787
2025-009CL              
1 62691U 25009CL  25125.18595472  .00022058  00000+0  96588-3 0  9991
2 62691  97.4113 205.8902 0003401 197.9969 162.1147 15.22036754 16728
HYDRA-T                 
1 62692U 25009CM  25125.62891548  .00045941  00000+0  17321-2 0  9997
2 62692  97.4100 206.6564 0004101 187.0478 173.0704 15.26906379 16814
2025-009CN              
1 62693U 25009CN  25125.16413903  .00033790  00000+0  13657-2 0  9999
2 62693  97.4439 206.5135 0002927 193.5622 166.5537 15.24661749 74407
LEMUR-2-WILSON          
1 62694U 25009CP  25125.77383210  .00004231  00000+0  41729-3 0  9994
2 62694  97.7333 206.3451 0002244 341.8724  18.2414 14.92523846 16532
CONNECTA IOT-8          
1 62695U 25009CQ  25125.18280725  .00001904  00000+0  19312-3 0  9994
2 62695  97.7384 205.7948 0001397 304.2251  55.8835 14.92035122 16448
LEMUR-2-STAR-FOX        
1 62696U 25009CR  25125.48856903  .00008577  00000+0  79435-3 0  9990
2 62696  97.7363 206.3032 0000816 268.3842  91.7285 14.94737854 16506
IRIDE-MS2-HEO-1         
1 62697U 25009CS  25125.89996948  .00003710  00000+0  36712-3 0  9995
2 62697  97.7360 206.5211 0000706 345.0716  15.0483 14.92470494 16552
ICEYE-X42               
1 62698U 25009CT  25125.81949613  .00004034  00000+0  40053-3 0  9998
2 62698  97.7357 206.4695 0000930 351.2261   8.8941 14.92286113 16548
LEMUR-2-ARIANNA         
1 62699U 25009CU  25125.48763816  .00010224  00000+0  94903-3 0  9992
2 62699  97.7333 206.2658 0001218  22.2999 337.8274 14.94595605 16504
ICEYE-X41               
1 62700U 25009CV  25125.79886522  .00004396  00000+0  42508-3 0  9996
2 62700  97.7367 206.5063 0000581 350.9551   9.1658 14.93293523 16546
FIREFLY-1               
1 62701U 25009CW  25125.88628293  .00003036  00000+0  29965-3 0  9998
2 62701  97.7376 206.5583 0000563 345.1364  14.9839 14.92705228 16557
NORSAT 4                
1 62702U 25009CX  25125.81434208  .00003047  00000+0  29994-3 0  9997
2 62702  97.7349 206.4689 0000985  11.6636 348.4606 14.92806342 16544
CONNECTA IOT-5          
1 62703U 25009CY  25125.79964043  .00001356  00000+0  13478-3 0  9991
2 62703  97.7325 206.4493 0002158  17.1277 343.0015 14.93307502 16548
FIREFLY-2               
1 62704U 25009CZ  25125.87945505  .00002494  00000+0  24678-3 0  9991
2 62704  97.7335 206.5160 0001767  29.4827 330.6491 14.92760181 16550
ICEYE-X45               
1 62705U 25009DA  25125.17465897  .00007936  00000+0  64849-3 0  9996
2 62705  97.7319 206.0964 0002384  53.9794 306.1650 14.99645652 16480
LEMUR-2-ALISIA          
1 62706U 25009DB  25125.17844858  .00011089  00000+0  10129-2 0  9990
2 62706  97.7409 206.1372 0002253 127.1229 233.0198 14.95209848 39048
ICEYE-X44               
1 62707U 25009DC  25125.64451309  .00002303  00000+0  22635-3 0  9993
2 62707  97.7361 206.3904 0002512  76.5591 283.5909 14.93100387 39075
CENTAURI-7              
1 62708U 25009DD  25125.48634314  .00005331  00000+0  50596-3 0  9996
2 62708  97.7379 206.3217 0002405 118.1534 241.9929 14.93939747 16517
CONNECTA IOT-6          
1 62709U 25009DE  25125.65584790  .00001742  00000+0  17336-3 0  9995
2 62709  97.7330 206.3360 0003035  72.8644 287.2908 14.92909586 16531
FIREFLY-3               
1 62710U 25009DF  25125.91028719  .00003472  00000+0  33737-3 0  9995
2 62710  97.7369 206.6664 0002632  87.9553 272.1968 14.93241517 16570
LEMUR-2-ROUNDTRIPPER    
1 62711U 25009DG  25125.16557949  .00010894  00000+0  98939-3 0  9996
2 62711  97.7321 206.0555 0003257  79.3516 280.8071 14.95436682 16482
LEMUR-2-MYNAMEISJEFF    
1 62712U 25009DH  25125.49983456  .00011672  00000+0  10594-2 0  9994
2 62712  97.7385 206.4610 0003124 115.2752 244.8793 14.95443798 16537
SATGUS                  
1 62713U 25009DJ  25125.78035360  .00008782  00000+0  80958-3 0  9999
2 62713  97.7347 206.6540 0003791  81.9016 278.2634 14.94910767 16575
CENTAURI-8              
1 62714U 25009DK  25125.47654383  .00005007  00000+0  47399-3 0  9997
2 62714  97.7341 206.2879 0003136  86.1474 274.0105 14.94071988 16524
CONNECTA IOT-7          
1 62715U 25009DL  25125.77590886  .00002296  00000+0  22566-3 0  9994
2 62715  97.7380 206.5487 0003300 103.1527 257.0061 14.93101980 16536
2025-012A               
1 62725U 25012A   25126.12965363  .00011453  00000+0  56984-3 0  9991
2 62725  97.4636 200.3615 0007663 250.5246 109.5160 15.17749921 16467
2025-012B               
1 62726U 25012B   25126.16233086  .00005653  00000+0  29334-3 0  9990
2 62726  97.4635 200.3201 0008468 251.1811 108.8504 15.16500121 16478
2025-012C               
1 62727U 25012C   25126.12001479  .00010913  00000+0  54166-3 0  9992
2 62727  97.4643 200.3810 0007875 244.1767 115.8655 15.17845579 16472
2025-013A               
1 62729U 25013A   25126.21819447  .00018161  00000+0  97654-3 0  9999
2 62729  97.6208 292.9989 0012224 276.7065  83.2775 15.14866772 15984
2025-013B               
1 62730U 25013B   25126.22778775  .00004514  00000+0  30138-3 0  9991
2 62730  97.6226 292.2348 0013391 326.0936  33.9435 15.07453164 15940
2025-013C               
1 62731U 25013C   25126.21052560  .00005693  00000+0  37874-3 0  9991
2 62731  97.6174 292.2062 0014444 329.1385  30.8992 15.07464810 15942
2025-013D               
1 62732U 25013D   25126.10779865  .00004516  00000+0  30165-3 0  9993
2 62732  97.6217 292.2185 0008688 353.1795   6.9313 15.07475390 15870
2025-013E               
1 62733U 25013E   25126.12683975  .00005028  00000+0  33557-3 0  9999
2 62733  97.6235 292.2131 0008010 341.7849  18.3091 15.07458153 15827
STARLINK-32806          
1 62735U 25014A   25125.62456002  .00000982  00000+0  30757-4 0  9999
2 62735  43.0018  95.8412 0001195 272.5633  87.5087 15.40699146 16124
STARLINK-32329          
1 62736U 25014B   25126.17441536  .00005220  00000+0  13218-3 0  9999
2 62736  43.0024  92.2198 0001205 247.3540 112.7189 15.40687700 16210
STARLINK-32774          
1 62737U 25014C   25125.61200547  .00001231  00000+0  54248-4 0  9990
2 62737  43.0022  97.4721 0000799 281.8862  78.1900 15.27587012 16109
STARLINK-32802          
1 62738U 25014D   25125.63786319  .00002461  00000+0  66149-4 0  9998
2 62738  43.0031  95.0739 0001455 271.1849  88.8841 15.40703452 16138
STARLINK-32796          
1 62739U 25014E   25125.33612245  .00000977  00000+0  30631-4 0  9999
2 62739  43.0020  97.1107 0000770 267.6752  92.4016 15.40700406 16086
STARLINK-32805          
1 62740U 25014F   25126.21250208 -.00010240  00000+0 -23783-3 0  9991
2 62740  42.9973  92.5123 0000363 283.1876  76.8940 15.40750198 16218
STARLINK-32770          
1 62741U 25014G   25126.17231726 -.00003166  00000+0 -68502-4 0  9999
2 62741  43.0013  93.0752 0001520 284.5186  75.5502 15.40720448 16209
STARLINK-32775          
1 62742U 25014H   25125.92406744 -.00000257  00000+0  11098-5 0  9992
2 62742  43.0011  93.7831 0000959 263.2343  96.8404 15.40695142 16172
STARLINK-32800          
1 62743U 25014J   25125.20393175  .00001152  00000+0  51380-4 0  9998
2 62743  43.0029 103.8880 0001530 248.8238 111.2450 15.27576422 15993
STARLINK-32758          
1 62744U 25014K   25125.88903443  .00001409  00000+0  59284-4 0  9994
2 62744  43.0012  96.1181 0000965 281.5745  78.4998 15.28412302 16148
STARLINK-32746          
1 62745U 25014L   25125.90389614  .00005312  00000+0  13433-3 0  9998
2 62745  43.0025  93.6300 0001393 278.8080  81.2618 15.40699688 16177
STARLINK-32780          
1 62746U 25014M   25125.90837857  .00000847  00000+0  27529-4 0  9996
2 62746  43.0025  93.6619 0001076 254.2925 105.7812 15.40700653 16178
STARLINK-32765          
1 62747U 25014N   25126.16993638 -.00000433  00000+0 -31025-5 0  9996
2 62747  43.0016  92.1844 0001100 277.3588  82.7143 15.40699552 16213
STARLINK-32762          
1 62748U 25014P   25125.61504488  .00001743  00000+0  71114-4 0  9992
2 62748  42.9992  97.4960 0001025 269.6140  90.4595 15.28411274 16100
